{"type": "FeatureCollection", "features": [ {"type": "Feature", "properties": {"norad_id": 41828, "name": "FENGYUN 1C DEB", "group": "fengyun-1c-debris", "lat": -35.665710010636275, "lon": -67.43609343163958, "alt_km": 708.8897206694583, "timestamp": "2025-12-16T17:51:11.222033+00:00", "meta": {"OBJECT_NAME": "FENGYUN 1C DEB", "OBJECT_ID": "1999-025EYF", "EPOCH": "2025-12-15T07:46:54.971904", "MEAN_MOTION": 14.51805727, "ECCENTRICITY": 0.00385224, "INCLINATION": 98.9211, "RA_OF_ASC_NODE": 117.53, "ARG_OF_PERICENTER": 168.666, "MEAN_ANOMALY": 191.541, "EPHEMERIS_TYPE": 0, "CLASSIFICATION_TYPE": "U", "NORAD_CAT_ID": 41828, "ELEMENT_SET_NO": 999, "REV_AT_EPOCH": 47501, "BSTAR": 0.0028981311, "MEAN_MOTION_DOT": 0.0001174, "MEAN_MOTION_DDOT": 0}, "tle": {"line1": "1 41828U 99025EYF 25349.32424736  .00011740  00000+0  28981-2 0  9994", "line2": "2 41828  98.9211 117.5300 0038522 168.6660 191.5410 14.51805727475013"}}, "geometry": {"type": "Point", "coordinates": [-67.43609343163958, -35.665710010636275]}}, {"type": "Feature", "properties": {"norad_id": 41829, "name": "FENGYUN 1C DEB", "group": "fengyun-1c-debris", "lat": 79.182651748187, "lon": 6.277035974703921, "alt_km": 823.101926741605, "timestamp": "2025-12-16T17:51:11.222043+00:00", "meta": {"OBJECT_NAME": "FENGYUN 1C DEB", "OBJECT_ID": "1999-025EYG", "EPOCH": "2025-12-15T04:23:17.827872", "MEAN_MOTION": 14.25140838, "ECCENTRICITY": 0.00565856, "INCLINATION": 98.7451, "RA_OF_ASC_NODE": 58.388, "ARG_OF_PERICENTER": 212.0005, "MEAN_ANOMALY": 147.7733, "EPHEMERIS_TYPE": 0, "CLASSIFICATION_TYPE": "U", "NORAD_CAT_ID": 41829, "ELEMENT_SET_NO": 999, "REV_AT_EPOCH": 47342, "BSTAR": 0.0011576279, "MEAN_MOTION_DOT": 2.719e-05, "MEAN_MOTION_DDOT": 0}, "tle": {"line1": "1 41829U 99025EYG 25349.18284523  .00002719  00000+0  11576-2 0  9995", "line2": "2 41829  98.7451  58.3880 0056585 212.0005 147.7733 14.25140838473429"}}, "geometry": {"type": "Point", "coordinates": [6.277035974703921, 79.182651748187]}}, {"type": "Feature", "properties": {"norad_id": 41830, "name": "FENGYUN 1C DEB", "group": "fengyun-1c-debris", "lat": -74.13202411522084, "lon": 95.54631378688421, "alt_km": 802.4795979186729, "timestamp": "2025-12-16T17:51:11.222053+00:00", "meta": {"OBJECT_NAME": "FENGYUN 1C DEB", "OBJECT_ID": "1999-025EYH", "EPOCH": "2025-12-15T16:57:44.876160", "MEAN_MOTION": 14.26474606, "ECCENTRICITY": 0.00548153, "INCLINATION": 98.7533, "RA_OF_ASC_NODE": 61.6881, "ARG_OF_PERICENTER": 208.2292, "MEAN_ANOMALY": 151.5914, "EPHEMERIS_TYPE": 0, "CLASSIFICATION_TYPE": "U", "NORAD_CAT_ID": 41830, "ELEMENT_SET_NO": 999, "REV_AT_EPOCH": 47316, "BSTAR": 0.001263818, "MEAN_MOTION_DOT": 3.048e-05, "MEAN_MOTION_DDOT": 0}, "tle": {"line1": "1 41830U 99025EYH 25349.70676940  .00003048  00000+0  12638-2 0  9999", "line2": "2 41830  98.7533  61.6881 0054815 208.2292 151.5914 14.26474606473168"}}, "geometry": {"type": "Point", "coordinates": [95.54631378688421, -74.13202411522084]}}, {"type": "Feature", "properties": {"norad_id": 41831, "name": "FENGYUN 1C DEB", "group": "fengyun-1c-debris", "lat": 77.58917088079679, "lon": 13.260643944772244, "alt_km": 827.6573773659229, "timestamp": "2025-12-16T17:51:11.222063+00:00", "meta": {"OBJECT_NAME": "FENGYUN 1C DEB", "OBJECT_ID": "1999-025EYJ", "EPOCH": "2025-12-15T02:41:58.570944", "MEAN_MOTION": 14.24585493, "ECCENTRICITY": 0.00563701, "INCLINATION": 98.7349, "RA_OF_ASC_NODE": 55.956, "ARG_OF_PERICENTER": 214.434, "MEAN_ANOMALY": 145.3182, "EPHEMERIS_TYPE": 0, "CLASSIFICATION_TYPE": "U", "NORAD_CAT_ID": 41831, "ELEMENT_SET_NO": 999, "REV_AT_EPOCH": 47293, "BSTAR": 0.001206011, "MEAN_MOTION_DOT": 2.803e-05, "MEAN_MOTION_DDOT": 0}, "tle": {"line1": "1 41831U 99025EYJ 25349.11248346  .00002803  00000+0  12060-2 0  9997", "line2": "2 41831  98.7349  55.9560 0056370 214.4340 145.3182 14.24585493472932"}}, "geometry": {"type": "Point", "coordinates": [13.260643944772244, 77.58917088079679]}}, {"type": "Feature", "properties": {"norad_id": 41832, "name": "FENGYUN 1C DEB", "group": "fengyun-1c-debris", "lat": 48.198423698104584, "lon": -115.36484701310496, "alt_km": 801.5694519769722, "timestamp": "2025-12-16T17:51:11.222074+00:00", "meta": {"OBJECT_NAME": "FENGYUN 1C DEB", "OBJECT_ID": "1999-025EYK", "EPOCH": "2025-12-15T04:08:33.320832", "MEAN_MOTION": 14.2425582, "ECCENTRICITY": 0.00556922, "INCLINATION": 98.7295, "RA_OF_ASC_NODE": 53.18, "ARG_OF_PERICENTER": 218.6119, "MEAN_ANOMALY": 141.1071, "EPHEMERIS_TYPE": 0, "CLASSIFICATION_TYPE": "U", "NORAD_CAT_ID": 41832, "ELEMENT_SET_NO": 999, "REV_AT_EPOCH": 47385, "BSTAR": 0.0012524364, "MEAN_MOTION_DOT": 2.893e-05, "MEAN_MOTION_DDOT": 0}, "tle": {"line1": "1 41832U 99025EYK 25349.17260788  .00002893  00000+0  12524-2 0  9992", "line2": "2 41832  98.7295  53.1800 0055692 218.6119 141.1071 14.24255820473857"}}, "geometry": {"type": "Point", "coordinates": [-115.36484701310496, 48.198423698104584]}}, {"type": "Feature", "properties": {"norad_id": 41833, "name": "FENGYUN 1C DEB", "group": "fengyun-1c-debris", "lat": 2.2591106174150886, "lon": 59.95405077773099, "alt_km": 842.3828622320534, "timestamp": "2025-12-16T17:51:11.222084+00:00", "meta": {"OBJECT_NAME": "FENGYUN 1C DEB", "OBJECT_ID": "1999-025EYL", "EPOCH": "2025-12-15T03:06:22.002048", "MEAN_MOTION": 14.25832239, "ECCENTRICITY": 0.00545341, "INCLINATION": 98.7483, "RA_OF_ASC_NODE": 58.691, "ARG_OF_PERICENTER": 216.4409, "MEAN_ANOMALY": 143.3054, "EPHEMERIS_TYPE": 0, "CLASSIFICATION_TYPE": "U", "NORAD_CAT_ID": 41833, "ELEMENT_SET_NO": 999, "REV_AT_EPOCH": 47398, "BSTAR": 0.0013084418, "MEAN_MOTION_DOT": 3.117e-05, "MEAN_MOTION_DDOT": 0}, "tle": {"line1": "1 41833U 99025EYL 25349.12942132  .00003117  00000+0  13084-2 0  9990", "line2": "2 41833  98.7483  58.6910 0054534 216.4409 143.3054 14.25832239473986"}}, "geometry": {"type": "Point", "coordinates": [59.95405077773099, 2.2591106174150886]}}, {"type": "Feature", "properties": {"norad_id": 43213, "name": "FENGYUN 1C DEB", "group": "fengyun-1c-debris", "lat": 2.6475877357973014, "lon": -124.47434231999229, "alt_km": 783.7935626995741, "timestamp": "2025-12-16T17:51:11.222094+00:00", "meta": {"OBJECT_NAME": "FENGYUN 1C DEB", "OBJECT_ID": "1999-025EYM", "EPOCH": "2025-12-11T15:35:29.120640", "MEAN_MOTION": 14.2384299, "ECCENTRICITY": 0.00550482, "INCLINATION": 98.7346, "RA_OF_ASC_NODE": 50.0589, "ARG_OF_PERICENTER": 230.6376, "MEAN_ANOMALY": 128.9918, "EPHEMERIS_TYPE": 0, "CLASSIFICATION_TYPE": "U", "NORAD_CAT_ID": 43213, "ELEMENT_SET_NO": 999, "REV_AT_EPOCH": 40357, "BSTAR": 0.0023267016, "MEAN_MOTION_DOT": 5.369e-05, "MEAN_MOTION_DDOT": 0}, "tle": {"line1": "1 43213U 99025EYM 25345.64964260  .00005369  00000+0  23267-2 0  9998", "line2": "2 43213  98.7346  50.0589 0055048 230.6376 128.9918 14.23842990403577"}}, "geometry": {"type": "Point", "coordinates": [-124.47434231999229, 2.6475877357973014]}}, {"type": "Feature", "properties": {"norad_id": 43214, "name": "FENGYUN 1C DEB", "group": "fengyun-1c-debris", "lat": 71.47708580935505, "lon": -97.24787017122728, "alt_km": 817.1292953036145, "timestamp": "2025-12-16T17:51:11.222104+00:00", "meta": {"OBJECT_NAME": "FENGYUN 1C DEB", "OBJECT_ID": "1999-025EYN", "EPOCH": "2025-12-15T04:15:18.438336", "MEAN_MOTION": 14.24148849, "ECCENTRICITY": 0.00555606, "INCLINATION": 98.7367, "RA_OF_ASC_NODE": 53.8741, "ARG_OF_PERICENTER": 219.7816, "MEAN_ANOMALY": 139.9283, "EPHEMERIS_TYPE": 0, "CLASSIFICATION_TYPE": "U", "NORAD_CAT_ID": 43214, "ELEMENT_SET_NO": 999, "REV_AT_EPOCH": 40438, "BSTAR": 0.0012672116, "MEAN_MOTION_DOT": 2.921e-05, "MEAN_MOTION_DDOT": 0}, "tle": {"line1": "1 43214U 99025EYN 25349.17729674  .00002921  00000+0  12672-2 0  9998", "line2": "2 43214  98.7367  53.8741 0055560 219.7816 139.9283 14.24148849404388"}}, "geometry": {"type": "Point", "coordinates": [-97.24787017122728, 71.47708580935505]}}, {"type": "Feature", "properties": {"norad_id": 43358, "name": "FENGYUN 1C DEB", "group": "fengyun-1c-debris", "lat": 72.88244985011069, "lon": 80.44693237228876, "alt_km": 1219.38987464817, "timestamp": "2025-12-16T17:51:11.222115+00:00", "meta": {"OBJECT_NAME": "FENGYUN 1C DEB", "OBJECT_ID": "1999-025EYP", "EPOCH": "2025-12-15T21:44:55.876128", "MEAN_MOTION": 13.40380689, "ECCENTRICITY": 0.03677435, "INCLINATION": 98.6872, "RA_OF_ASC_NODE": 109.4893, "ARG_OF_PERICENTER": 194.7309, "MEAN_ANOMALY": 164.2875, "EPHEMERIS_TYPE": 0, "CLASSIFICATION_TYPE": "U", "NORAD_CAT_ID": 43358, "ELEMENT_SET_NO": 999, "REV_AT_EPOCH": 53773, "BSTAR": 0.0017537317, "MEAN_MOTION_DOT": 1.392e-05, "MEAN_MOTION_DDOT": 0}, "tle": {"line1": "1 43358U 99025EYP 25349.90620227  .00001392  00000+0  17537-2 0  9998", "line2": "2 43358  98.6872 109.4893 0367743 194.7309 164.2875 13.40380689537732"}}, "geometry": {"type": "Point", "coordinates": [80.44693237228876, 72.88244985011069]}}, {"type": "Feature", "properties": {"norad_id": 43359, "name": "FENGYUN 1C DEB", "group": "fengyun-1c-debris", "lat": -6.226495935520673, "lon": 71.84092215499632, "alt_km": 766.1271879191409, "timestamp": "2025-12-16T17:51:11.222125+00:00", "meta": {"OBJECT_NAME": "FENGYUN 1C DEB", "OBJECT_ID": "1999-025EYQ", "EPOCH": "2025-12-15T18:15:37.224864", "MEAN_MOTION": 14.23190366, "ECCENTRICITY": 0.00734138, "INCLINATION": 99.0538, "RA_OF_ASC_NODE": 69.8335, "ARG_OF_PERICENTER": 5.991, "MEAN_ANOMALY": 354.2128, "EPHEMERIS_TYPE": 0, "CLASSIFICATION_TYPE": "U", "NORAD_CAT_ID": 43359, "ELEMENT_SET_NO": 999, "REV_AT_EPOCH": 47792, "BSTAR": 0.0013705337, "MEAN_MOTION_DOT": 3.139e-05, "MEAN_MOTION_DDOT": 0}, "tle": {"line1": "1 43359U 99025EYQ 25349.76084751  .00003139  00000+0  13705-2 0  9993", "line2": "2 43359  99.0538  69.8335 0073413   5.9910 354.2128 14.23190366477925"}}, "geometry": {"type": "Point", "coordinates": [71.84092215499632, -6.226495935520673]}}]}